{
  "type": "FeatureCollection",
  "features": [
    {
      "type": "Feature",
      "properties": {
        "norad_id": 33765,
        "name": "COSMOS 2251 DEB",
        "group": "cosmos-2251-debris",
        "lat": -72.47414043669235,
        "lon": 73.9094706110884,
        "alt_km": 501.23277837124624,
        "timestamp": "2025-12-05T04:52:15.682910+00:00",
        "meta_object_name": "COSMOS 2251 DEB",
        "meta_object_id": "1993-036N",
        "meta_epoch": "2025-12-04T13:29:33.203040",
        "meta_mean_motion": 15.09220094,
        "meta_eccentricity": 0.0067439,
        "meta_inclination": 74.0109,
        "meta_ra_of_asc_node": 190.0036,
        "meta_arg_of_pericenter": 283.629,
        "meta_mean_anomaly": 99.3169,
        "meta_ephemeris_type": 0,
        "meta_classification_type": "U",
        "meta_norad_cat_id": 33765,
        "meta_element_set_no": 999,
        "meta_rev_at_epoch": 89495,
        "meta_bstar": 0.0045826,
        "meta_mean_motion_dot": 0.0007765,
        "meta_mean_motion_ddot": 0,
        "tle_line1": "1 33765U 93036N   25338.56218985  .00077650  00000+0  45826-2 0  9991",
        "tle_line2": "2 33765  74.0109 190.0036 0067439 283.6290  99.3169 15.09220094894959"
      },
      "geometry": {
        "type": "Point",
        "coordinates": [
          73.9094706110884,
          -72.47414043669235
        ]
      }
    },
    {
      "type": "Feature",
      "properties": {
        "norad_id": 33766,
        "name": "COSMOS 2251 DEB",
        "group": "cosmos-2251-debris",
        "lat": -18.26208698489541,
        "lon": 143.2981881422953,
        "alt_km": 735.6091903404704,
        "timestamp": "2025-12-05T04:52:15.682920+00:00",
        "meta_object_name": "COSMOS 2251 DEB",
        "meta_object_id": "1993-036P",
        "meta_epoch": "2025-12-04T13:53:56.102784",
        "meta_mean_motion": 14.34898051,
        "meta_eccentricity": 0.0063751,
        "meta_inclination": 74.1848,
        "meta_ra_of_asc_node": 149.7974,
        "meta_arg_of_pericenter": 355.4754,
        "meta_mean_anomaly": 4.5814,
        "meta_ephemeris_type": 0,
        "meta_classification_type": "U",
        "meta_norad_cat_id": 33766,
        "meta_element_set_no": 999,
        "meta_rev_at_epoch": 87628,
        "meta_bstar": 0.00097989,
        "meta_mean_motion_dot": 2.826e-05,
        "meta_mean_motion_ddot": 0,
        "tle_line1": "1 33766U 93036P   25338.57912156  .00002826  00000+0  97989-3 0  9995",
        "tle_line2": "2 33766  74.1848 149.7974 0063751 355.4754   4.5814 14.34898051876281"
      },
      "geometry": {
        "type": "Point",
        "coordinates": [
          143.2981881422953,
          -18.26208698489541
        ]
      }
    },
    {
      "type": "Feature",
      "properties": {
        "norad_id": 33768,
        "name": "COSMOS 2251 DEB",
        "group": "cosmos-2251-debris",
        "lat": -3.650796321800716,
        "lon": 53.07454452142048,
        "alt_km": 1282.4167480781925,
        "timestamp": "2025-12-05T04:52:15.682929+00:00",
        "meta_object_name": "COSMOS 2251 DEB",
        "meta_object_id": "1993-036R",
        "meta_epoch": "2025-12-04T11:08:52.470816",
        "meta_mean_motion": 13.58444504,
        "meta_eccentricity": 0.0365902,
        "meta_inclination": 74.0687,
        "meta_ra_of_asc_node": 233.2217,
        "meta_arg_of_pericenter": 32.7866,
        "meta_mean_anomaly": 138.8737,
        "meta_ephemeris_type": 0,
        "meta_classification_type": "U",
        "meta_norad_cat_id": 33768,
        "meta_element_set_no": 999,
        "meta_rev_at_epoch": 83183,
        "meta_bstar": 0.00065445,
        "meta_mean_motion_dot": 7.18e-06,
        "meta_mean_motion_ddot": 0,
        "tle_line1": "1 33768U 93036R   25338.46449619  .00000718  00000+0  65445-3 0  9994",
        "tle_line2": "2 33768  74.0687 233.2217 0365902  32.7866 138.8737 13.58444504831836"
      },
      "geometry": {
        "type": "Point",
        "coordinates": [
          53.07454452142048,
          -3.650796321800716
        ]
      }
    },
    {
      "type": "Feature",
      "properties": {
        "norad_id": 33779,
        "name": "COSMOS 2251 DEB",
        "group": "cosmos-2251-debris",
        "lat": 72.60074369287024,
        "lon": -108.74354641136387,
        "alt_km": 662.1461683373063,
        "timestamp": "2025-12-05T04:52:15.682939+00:00",
        "meta_object_name": "COSMOS 2251 DEB",
        "meta_object_id": "1993-036U",
        "meta_epoch": "2025-12-04T15:41:09.267072",
        "meta_mean_motion": 14.70204736,
        "meta_eccentricity": 0.001769,
        "meta_inclination": 74.0441,
        "meta_ra_of_asc_node": 186.3979,
        "meta_arg_of_pericenter": 221.4262,
        "meta_mean_anomaly": 195.1809,
        "meta_ephemeris_type": 0,
        "meta_classification_type": "U",
        "meta_norad_cat_id": 33779,
        "meta_element_set_no": 999,
        "meta_rev_at_epoch": 88409,
        "meta_bstar": 0.0031911,
        "meta_mean_motion_dot": 0.00019298,
        "meta_mean_motion_ddot": 0,
        "tle_line1": "1 33779U 93036U   25338.65357948  .00019298  00000+0  31911-2 0  9993",
        "tle_line2": "2 33779  74.0441 186.3979 0017690 221.4262 195.1809 14.70204736884092"
      },
      "geometry": {
        "type": "Point",
        "coordinates": [
          -108.74354641136387,
          72.60074369287024
        ]
      }
    },
    {
      "type": "Feature",
      "properties": {
        "norad_id": 33782,
        "name": "COSMOS 2251 DEB",
        "group": "cosmos-2251-debris",
        "lat": -61.43920792881326,
        "lon": -100.2490682519843,
        "alt_km": 757.4207720496879,
        "timestamp": "2025-12-05T04:52:15.682948+00:00",
        "meta_object_name": "COSMOS 2251 DEB",
        "meta_object_id": "1993-036X",
        "meta_epoch": "2025-12-04T14:58:37.869024",
        "meta_mean_motion": 14.4041132,
        "meta_eccentricity": 0.0020403,
        "meta_inclination": 74.0329,
        "meta_ra_of_asc_node": 292.5557,
        "meta_arg_of_pericenter": 358.7505,
        "meta_mean_anomaly": 174.7848,
        "meta_ephemeris_type": 0,
        "meta_classification_type": "U",
        "meta_norad_cat_id": 33782,
        "meta_element_set_no": 999,
        "meta_rev_at_epoch": 88009,
        "meta_bstar": 0.00082582,
        "meta_mean_motion_dot": 2.604e-05,
        "meta_mean_motion_ddot": 0,
        "tle_line1": "1 33782U 93036X   25338.62404941  .00002604  00000+0  82582-3 0  9994",
        "tle_line2": "2 33782  74.0329 292.5557 0020403 358.7505 174.7848 14.40411320880091"
      },
      "geometry": {
        "type": "Point",
        "coordinates": [
          -100.2490682519843,
          -61.43920792881326
        ]
      }
    },
    {
      "type": "Feature",
      "properties": {
        "norad_id": 33785,
        "name": "COSMOS 2251 DEB",
        "group": "cosmos-2251-debris",
        "lat": 52.3459187169035,
        "lon": 96.73088853186832,
        "alt_km": 643.4333035526097,
        "timestamp": "2025-12-05T04:52:15.682958+00:00",
        "meta_object_name": "COSMOS 2251 DEB",
        "meta_object_id": "1993-036AA",
        "meta_epoch": "2025-12-04T16:08:19.830336",
        "meta_mean_motion": 14.70191208,
        "meta_eccentricity": 0.0021548,
        "meta_inclination": 73.8679,
        "meta_ra_of_asc_node": 75.739,
        "meta_arg_of_pericenter": 17.0529,
        "meta_mean_anomaly": 111.6689,
        "meta_ephemeris_type": 0,
        "meta_classification_type": "U",
        "meta_norad_cat_id": 33785,
        "meta_element_set_no": 999,
        "meta_rev_at_epoch": 88388,
        "meta_bstar": 0.0047949,
        "meta_mean_motion_dot": 0.0002908,
        "meta_mean_motion_ddot": 0,
        "tle_line1": "1 33785U 93036AA  25338.67245174  .00029080  00000+0  47949-2 0  9997",
        "tle_line2": "2 33785  73.8679  75.7390 0021548  17.0529 111.6689 14.70191208883883"
      },
      "geometry": {
        "type": "Point",
        "coordinates": [
          96.73088853186832,
          52.3459187169035
        ]
      }
    },
    {
      "type": "Feature",
      "properties": {
        "norad_id": 33789,
        "name": "COSMOS 2251 DEB",
        "group": "cosmos-2251-debris",
        "lat": -66.68703627573053,
        "lon": 58.66632274611484,
        "alt_km": 875.44864857832,
        "timestamp": "2025-12-05T04:52:15.682967+00:00",
        "meta_object_name": "COSMOS 2251 DEB",
        "meta_object_id": "1993-036AE",
        "meta_epoch": "2025-12-04T02:26:01.956192",
        "meta_mean_motion": 13.88764069,
        "meta_eccentricity": 0.02404684,
        "meta_inclination": 74.0636,
        "meta_ra_of_asc_node": 102.066,
        "meta_arg_of_pericenter": 219.5889,
        "meta_mean_anomaly": 319.9835,
        "meta_ephemeris_type": 0,
        "meta_classification_type": "U",
        "meta_norad_cat_id": 33789,
        "meta_element_set_no": 999,
        "meta_rev_at_epoch": 84975,
        "meta_bstar": 0.0013316112,
        "meta_mean_motion_dot": 2e-05,
        "meta_mean_motion_ddot": 0,
        "tle_line1": "1 33789U 93036AE  25338.10141153  .00002000  00000+0  13316-2 0  9995",
        "tle_line2": "2 33789  74.0636 102.0660 0240468 219.5889 319.9835 13.88764069849752"
      },
      "geometry": {
        "type": "Point",
        "coordinates": [
          58.66632274611484,
          -66.68703627573053
        ]
      }
    }
  ]
}